EVENT_NAME: 202302060117
EVENT_ID: 13194
EVENT_DATE_YYYYMMDD: 2023/02/06
EVENT_TIME_HHMMSS: 01:17:32.00000
EVENT_LATITUDE_DEGREE: 37.288
EVENT_LONGITUDE_DEGREE: 37.043
EVENT_DEPTH_KM: 8.6
HYPOCENTER_REFERENCE: AFAD
MAGNITUDE_W: 7.7
MAGNITUDE_W_REFERENCE: AFAD
MAGNITUDE_L: 
MAGNITUDE_L_REFERENCE: 
FOCAL_MECHANISM: 
NETWORK: TK
STATION_CODE: 0131
STATION_NAME: 
STATION_LATITUDE_DEGREE: 37.856602
STATION_LONGITUDE_DEGREE: 36.115347
STATION_ELEVATION_M: 769.0
LOCATION: Kahramanmaras_Pazarck_Turkiye
SENSOR_DEPTH_M: 
VS30_M/S: None
SITE_CLASSIFICATION_EC8: unknown
MORPHOLOGIC_CLASSIFICATION: 
EPICENTRAL_DISTANCE_KM: 103.35
EARTHQUAKE_BACKAZIMUTH_DEGREE: 
DATE_TIME_FIRST_SAMPLE_YYYYMMDD_HHMMSS: 2023/02/06 01:17:29.868359
DATE_TIME_FIRST_SAMPLE_PRECISION: millisecond
SAMPLING_INTERVAL_S: 0.01
NDATA: 12500
DURATION_S: 
STREAM: HNN
UNITS: cm/s^2
INSTRUMENT: sensor = ACEBOX/SARA | digitizer = 
INSTRUMENT_ANALOG/DIGITAL: 
INSTRUMENTAL_FREQUENCY_HZ: 
INSTRUMENTAL_DAMPING: 
FULL_SCALE_G: 
N_BIT_DIGITAL_CONVERTER: 
PGA_CM/S^2: 144.673
TIME_PGA_S: 
BASELINE_CORRECTION: BASELINE REMOVED
FILTER_TYPE: BUTTERWORTH
FILTER_ORDER: 1
LOW_CUT_FREQUENCY_HZ: 0.025
HIGH_CUT_FREQUENCY_HZ: 40.0
LATE/NORMAL_TRIGGERED: NT
DATABASE_VERSION: 
HEADER_FORMAT: DYNA 1.2
DATA_TYPE: Acceleration
PROCESSING: Automatic Paolucci et al., 2011
DATA_TIMESTAMP_YYYYMMDD_HHMMSS: 
DATA_LICENSE: U (unknown license)
DATA_CITATION: Turkish Accelerometric Archive v 1.0 - Disaster And Emergency Management Presidency, Earthquake Department
DATA_CREATOR: AFAD
ORIGINAL_DATA_MEDIATOR_CITATION: : AFAD - Disaster And Emergency Management Presidency
ORIGINAL_DATA_MEDIATOR: AFAD PROCESS SERVICE
ORIGINAL_DATA_CREATOR_CITATION: AFAD PROCESS SERVICE
ORIGINAL_DATA_CREATOR: network: TK
USER1: GuestUser
USER2: 
USER3: 
USER4: 
USER5: 
[...]
-43.633382
-47.727945
-28.715777
-3.570156
11.756461
23.391804
31.803555
30.735021
28.846404
21.369897
-4.182179
-30.975890
-38.535945
-25.914606
-2.580120
12.081324
9.004117
2.497600
4.389645
11.812745
14.964569
9.083555
6.293086
13.433381
16.176168
8.821207
-1.032240
-12.672229
-23.979113
-25.737129
-13.452768
5.288152
17.000162
17.213557
9.131178
-3.026908
-12.250520
-16.482688
-15.057034
-0.676089
21.257745
33.162308
31.056920
20.200739
6.283321
-1.465270
-1.679293
1.300340
7.125796
9.442906
3.736500
-4.209697
-17.692504
-39.551581
-50.244188
-32.292644
4.764181
37.316651
48.583458
36.083596
11.669182
-2.844868
0.478634
4.354197
-2.215542
-13.408117
-27.532108
-41.975495
-41.597198
-15.539763
18.897685
37.106367
43.899498
45.492466
32.367281
10.485732
-11.107380
-25.672759
-18.655899
-1.240034
1.718982
-10.302035
-27.555624
-40.713260
-42.021545
-27.234367
-0.522582
17.360373
21.570567
26.910203
26.624140
14.882988
8.001264
12.193208
18.796799
16.164934
-0.817709
-23.304807
-43.603228
-56.529457
-51.475384
-28.843824
-2.840531
16.871552
27.754035
30.547937
32.173632
32.306220
16.177323
-10.028535
-14.305610
8.234459
31.664994
37.012695
17.312390
-15.835163
-33.027672
-19.182560
15.415143
44.992000
45.168577
19.616563
-5.426756
-17.353085
-26.381568
-35.931829
-35.447117
-22.876036
1.452052
31.604165
45.278581
37.031986
19.223598
1.821012
-3.083813
-1.923631
-6.835096
-9.069465
-11.002051
-18.994669
-22.608346
-21.224324
-18.162167
-10.500363
-1.293313
5.127638
2.398937
-9.211839
-14.288704
-5.134750
13.208974
29.906776
29.169067
13.261726
3.558496
9.747183
26.761411
43.382791
41.152912
14.384757
-19.365811
-49.099917
-71.344909
-70.165870
-48.372306
-31.425580
-20.759433
-5.787416
8.410403
18.394757
24.898181
25.496897
19.521941
8.126449
-3.033393
-9.517459
-20.666371
-43.074479
-58.167684
-46.076591
-16.426433
12.642605
36.332922
50.468862
50.769522
42.372910
35.746354
33.237338
21.919321
-2.779146
-25.388086
-39.947909
-52.965315
-61.169007
-56.508673
-35.903519
1.301214
47.791318
82.430202
88.997996
70.867076
36.862255
1.983751
-14.868094
-17.958838
-22.229197
-29.326418
-37.161899
-42.064778
-39.861250
-28.089442
-5.140448
20.874475
41.289030
46.605629
23.950598
-8.137997
-21.565130
-23.028467
-17.629342
-4.083986
3.428834
10.598076
28.017215
38.824674
39.255398
39.146921
30.667622
9.706079
-18.791511
-51.841621
-75.676242
-79.939595
-74.409483
-61.672776
-28.292106
22.169732
67.271179
95.853432
102.430431
80.756258
42.347763
-2.121336
-47.703013
-72.280050
-74.650755
-78.494983
-75.538956
-50.198136
-14.144225
24.011824
66.491830
107.269582
122.358338
97.782755
52.632223
-5.840039
-73.765325
-104.759355
-77.577457
-33.850647
-7.585188
0.010632
0.624179
4.310930
15.415158
38.633778
55.370630
40.298755
17.548037
16.231844
20.745116
16.625139
4.953102
-16.415706
-38.218114
-45.746467
-47.843836
-58.021781
-54.427677
-18.311411
25.216352
58.336728
77.542368
67.491611
41.132014
20.409243
-0.934501
-16.752438
-19.605820
-22.389036
-29.652544
-43.758740
-50.627380
-19.287293
30.558125
56.045666
58.332162
46.534649
23.046675
0.064710
-20.722911
-33.090089
-21.538117
2.633999
16.622166
14.014087
2.119240
-4.155633
-2.918389
-4.583751
-8.032247
-8.459978
-9.909412
-19.854639
-38.273344
-46.339088
-25.665083
12.385492
41.830090
49.334708
35.467121
16.054241
10.972359
12.372865
-0.971332
-24.748545
-39.365546
-35.175347
-21.667912
-16.086351
-16.080038
-8.387543
10.228848
32.522897
35.640881
4.723563
-35.508547
-44.750921
-9.318862
41.982676
61.199006
29.787948
-21.254106
-49.194114
-47.490880
-29.681629
-3.793827
12.774521
11.976585
7.229035
4.332134
5.612039
12.318540
15.691824
11.796659
1.914431
-10.862431
-24.500618
-41.338559
-49.487138
-35.017106
-9.932208
7.145479
11.039195
7.568452
10.619090
23.496619
23.414025
-5.514558
-36.421998
-38.526940
-20.662216
-1.129650
14.228479
18.956386
12.866187
4.046189
-3.266192
-9.523946
-15.691883
-21.319237
-29.164273
-38.559450
-37.098033
-19.503302
7.568898
33.343258
43.933687
44.311096
43.805703
26.870706
-6.645578
-37.102960
-61.762287
-71.351971
-55.091525
-28.722851
-3.238380
18.162532
23.536618
19.995356
27.152358
38.700976
36.261870
23.832974
15.430951
8.577003
-1.277817
-6.811220
-7.716562
-12.684039
-20.796647
-21.558426
-9.740388
4.351529
4.572161
-4.643727
-1.197014
16.367522
27.723833
24.287668
5.998557
-22.145458
-33.534168
-15.887616
1.567098
1.174762
-4.100372
-10.635048
-22.321564
-33.014623
-33.242804
-14.603428
14.720713
29.841816
21.678900
-0.205897
-19.841643
-20.907457
-8.581811
0.996365
6.041493
7.186926
5.970112
7.606977
7.246494
1.852577
0.532420
5.844527
11.201157
17.179161
27.580741
35.974783
31.992128
11.559292
-18.852163
-43.974237
-54.573561
-50.681233
-38.701534
-27.470295
-7.723841
25.874986
48.733742
53.934446
54.225063
39.138635
7.207651
-17.188462
-23.588207
-21.187819
-21.938310
-29.354103
-31.347585
-14.401839
13.953412
32.665661
33.413933
20.521648
4.595661
-0.084682
0.160278
-10.585976
-19.605244
-10.365321
5.864439
14.029743
10.394277
0.379657
0.440339
13.373893
18.659994
6.181026
-21.211239
-57.603312
-74.366966
-45.143274
7.567834
42.754930
55.079118
56.652165
43.218733
19.892204
5.074763
-0.596590
1.048084
5.035555
-9.457237
-41.132610
-70.052222
-89.525978
-90.457760
-58.620169
1.065875
62.864485
103.186867
108.363201
75.541505
27.669251
-13.247030
-44.086600
-51.910613
-38.405619
-24.673321
-9.243858
4.802388
8.614124
18.187617
30.480858
25.216993
11.482582
0.161345
-10.181204
-10.679643
-0.413073
4.137111
-3.756019
-12.433797
-11.017996
-2.142808
8.586637
18.685657
19.647900
4.058195
-19.955276
-34.176687
-26.480640
-4.680126
10.324557
13.125623
13.180009
6.294810
-12.950267
-27.384469
-22.664708
-5.306827
11.338553
15.113679
7.638399
4.855992
13.770446
26.906717
30.056895
16.048439
1.002642
3.187077
15.585169
21.587899
16.550838
10.054238
13.270879
13.042396
-14.808793
-55.030748
-66.392922
-40.013594
-1.505748
24.205363
30.572083
23.179055
10.164186
0.853143
-2.154731
2.967999
21.254766
36.486619
26.555052
-2.977710
-36.210571
-59.451709
-56.038612
-28.741263
-2.897150
19.263473
47.522966
55.653772
35.454542
18.706732
6.944519
-6.231219
-10.236436
-12.595856
-14.641042
-12.427713
-18.444155
-30.539667
-34.395152
-24.000852
-6.128878
1.201279
2.413107
21.999495
55.577031
69.646756
43.973067
-3.511374
-40.023450
-52.208854
-35.304512
4.384445
29.019450
17.377873
-4.295972
-18.364745
-27.953684
-22.125788
1.576186
17.374323
8.538558
-11.490804
-24.698296
-30.671556
-30.204551
-13.837671
13.198165
34.710423
43.102657
29.771976
7.105705
-1.330029
-15.031714
-40.236408
-39.954654
-22.715555
-24.978632
-46.628182
-71.490562
-68.599306
-16.325783
48.877212
84.112885
86.734322
63.170437
29.059741
7.484317
-3.102052
-9.919830
-11.535457
-16.541737
-30.272435
-46.230773
-48.973891
-26.083406
-1.466275
0.566542
0.086512
10.211426
18.806907
23.748862
23.863516
15.879155
8.330565
6.556519
4.012409
0.472497
8.414611
26.287289
33.547614
21.703747
-6.481891
-44.122128
-68.902838
-61.101156
-24.293484
14.105172
28.233945
28.016923
29.073998
29.206133
33.837629
37.515141
25.944436
8.324457
-7.496127
-20.193634
-22.676405
-17.897474
-9.898084
-0.974865
8.267985
22.813466
25.125223
0.719813
-24.899016
-32.378872
-23.522657
-3.009027
11.429820
13.980430
24.978347
47.322464
58.885421
48.971926
20.836007
-20.125700
-58.980944
-77.310574
-59.842927
-11.315959
26.559290
35.513228
35.394421
19.603344
-9.813668
-24.048471
-23.671466
-16.004499
-8.548948
-14.906061
-13.927619
5.478698
17.976909
20.904862
19.572962
5.943605
-8.391132
-3.850397
19.647544
45.628791
55.949512
48.470749
30.320719
5.688720
-12.985269
-20.149702
-32.318807
-45.767561
-34.085956
-1.013107
26.942964
34.941047
24.287702
9.187314
-1.364336
-10.470666
-17.186719
-16.696901
-11.137253
-7.857237
-1.610224
20.186030
44.793897
54.263960
55.214736
48.762133
33.067309
19.985403
4.548792
-14.177980
-15.984984
-9.639456
-9.926738
-8.016725
-14.199189
-32.659337
-35.171104
-13.686441
11.097769
21.859318
18.302510
10.229607
1.719149
0.103301
13.937607
36.143435
54.956466
59.968826
45.047455
14.530131
-24.648043
-60.147740
-82.421546
-93.550343
-84.633958
-49.714125
-10.153224
19.861706
43.827555
55.220725
49.983678
36.752095
17.224642
1.300205
11.518348
32.171878
24.977298
-1.992050
-21.425767
-32.967640
-36.399242
-28.887588
-23.458227
-23.661763
-19.339523
-16.416467
-18.543540
-6.237078
19.436599
33.771640
36.246190
32.465088
17.316976
4.884278
10.384094
24.993495
34.959678
33.577967
21.921298
4.907240
-19.113055
-48.694177
-62.890857
-49.775753
-29.685156
-10.773847
13.308054
30.583222
46.593456
73.515727
88.088684
72.950628
37.420227
2.265093
-15.239733
-26.880395
-46.272458
-65.145733
-72.461984
-52.400986
-4.649610
38.461837
55.925431
52.752492
34.864306
15.418111
13.603957
28.681255
44.951586
41.281297
0.343571
-57.902802
-100.284600
-112.923713
-77.971752
-9.283820
49.583445
95.431746
118.917553
98.945497
58.497365
3.576007
-53.306271
-59.818407
-39.258230
-40.690271
-34.123940
-7.258506
8.330184
14.996562
30.591224
42.487491
26.298351
-8.153217
-33.541530
-44.762588
-34.671919
-6.079867
3.638520
-11.422110
-21.854636
-28.699691
-33.917546
-15.827124
14.809987
20.272588
2.534958
-5.246473
-1.416970
-8.091141
-21.774407
-22.291508
-2.242761
31.439885
59.483664
57.137153
16.460991
-37.998430
-75.190561
-83.413635
-51.944462
6.274507
46.043899
68.284628
88.722713
79.293954
50.201136
31.385370
11.643839
-5.587918
-19.950892
-45.061562
-63.113707
-58.895359
-30.018105
16.348546
54.187644
65.075130
37.772984
-11.365339
-45.627238
-57.125938
-41.316485
-7.935772
11.298402
17.203783
23.341310
42.664666
72.560016
74.156594
46.657571
8.477024
-55.726218
-121.868259
-138.675158
-98.607247
-35.252302
11.100490
47.515149
89.307184
109.189661
109.441246
104.511546
68.673230
14.143561
-20.502316
-48.536610
-80.603275
-87.054527
-63.438127
-39.222099
-21.248997
-2.739860
8.573685
23.959384
59.868855
89.201341
85.547097
61.428377
32.255217
4.880943
-19.618476
-45.225381
-61.210708
-61.673064
-57.348206
-36.261367
9.279235
40.668191
34.889593
15.975562
1.117485
-6.247343
-1.689080
3.429026
3.346660
11.829636
25.564354
30.714558
27.616627
23.669721
32.693882
50.468261
47.785907
24.975881
8.119156
-2.954455
-26.644348
-64.249775
-88.697066
-71.295635
-22.002242
20.235933
31.907823
21.942967
17.814532
37.710989
60.298303
47.904195
4.932550
-39.190941
-68.829622
-73.307130
-58.070455
-40.951809
-29.063741
-23.086090
-8.720774
15.155808
18.748985
5.732293
0.878329
-0.368425
-1.157479
2.568622
8.802387
15.821879
17.904048
17.961008
20.139033
10.723043
-11.558538
-25.934779
-26.003336
-22.490053
-18.696452
-14.491304
-14.879629
-16.026880
-6.498831
13.724458
34.442863
48.780273
47.516344
19.432592
-18.975974
-31.451667
-8.741463
24.106246
30.531321
-1.645983
-38.235852
-42.912296
-17.989238
16.549653
41.393465
36.975092
4.812095
-20.063455
-13.322113
2.721087
-1.133422
-18.545689
-28.739124
-20.101423
3.646036
10.108263
-15.223325
-30.214857
-17.054368
-4.564113
5.944582
22.450222
29.095507
20.028776
0.196190
-29.194602
-54.346790
-49.431239
-13.768740
17.702922
18.604038
-4.193135
-29.194004
-41.327055
-31.650977
6.019144
49.565017
68.228720
67.886053
54.545944
29.110018
13.732827
10.525276
6.802978
-5.404814
-37.561797
-68.751701
-78.964401
-88.124424
-88.214058
-53.623530
0.063862
59.280025
116.839857
126.686894
78.699319
35.106820
13.350794
-12.430960
-35.972619
-61.560548
-85.433746
-71.712990
-34.766103
-19.097456
-24.529634
-16.430525
25.838397
65.808912
56.424512
10.237414
-29.669948
-40.165887
-25.672039
7.878169
55.787594
97.126800
111.529970
80.743879
18.125763
-28.242536
-56.308266
-63.675986
-27.267337
8.170323
10.317882
-5.140006
-36.630082
-58.065319
-51.369522
-28.658845
-1.234980
1.724577
-8.898764
-3.001088
-1.666887
0.237365
20.470344
35.445133
37.483435
26.848826
-3.043086
-31.913022
-45.143016
-57.532657
-64.197890
-41.622889
-3.879101
28.735153
62.189286
80.413608
70.151251
53.048191
36.515455
17.001458
-3.867140
-34.274004
-72.427518
-100.199488
-95.689838
-55.113068
-11.658612
14.412592
29.176826
24.989335
17.416124
35.795284
55.091343
44.268554
15.883742
-7.646406
-10.111312
3.005820
1.764042
-27.946975
-73.132787
-110.430938
-115.613677
-81.570999
-27.495061
22.385829
59.337220
79.435230
79.421066
76.233380
84.006959
83.473891
61.636315
30.183694
-2.700952
-28.519859
-49.372335
-76.955112
-93.537013
-86.763927
-67.781568
-29.557346
15.292838
35.329538
47.493278
73.667700
88.348056
65.727472
19.979871
-23.712441
-54.659638
-49.922305
-12.084817
-0.180855
-22.216557
-36.767810
-52.140845
-74.551048
-78.367681
-60.521070
-34.188907
-12.066344
10.995551
48.825738
86.633983
112.799786
125.313728
103.109562
43.661370
-28.008001
-91.530137
-135.234360
-144.672975
-105.900976
-44.858915
2.426085
44.443896
67.392251
45.945815
19.344791
8.435163
-6.934719
-10.441210
4.259103
13.523801
15.975495
8.876277
-10.455101
-15.818448
-5.472017
-12.006161
-33.275020
-43.004089
-41.076392
-32.575844
-13.368587
6.945215
18.604995
26.709318
28.921079
20.783212
6.960737
-15.587707
-28.197990
4.691820
53.032085
55.964686
9.189879
-52.618955
-80.017089
-46.154869
13.360395
48.420344
43.070568
21.645853
15.284347
16.923347
10.201049
-3.663891
-18.385732
-27.838944
-37.741438
-46.453337
-39.851339
-21.284975
-0.025470
12.837580
12.556944
18.286989
26.504670
11.737169
-16.449856
-35.366574
-42.682959
-40.083331
-28.223532
-17.072752
-15.671836
-13.053190
1.374738
13.034797
13.825653
24.162977
58.272383
96.200957
98.499559
52.480522
-6.577843
-53.474998
-91.435930
-92.803270
-49.519287
-19.907491
-18.350204
-13.390014
-9.999538
-0.317630
36.686547
76.435275
88.548443
71.882340
38.347986
5.100018
-17.557953
-39.591533
-61.888705
-59.577280
-38.618195
-24.720421
-2.309885
32.267198
45.095307
34.096976
24.541102
14.572807
-5.359405
-15.526679
-10.515064
-13.208768
-18.009755
-11.123259
-4.195583
-4.228084
-6.233126
-0.848366
11.159672
14.857787
11.813621
7.118049
-9.634047
-29.580007
-33.873168
-26.519370
-8.939287
15.352670
20.734833
4.986470
-12.313605
-23.185928
-16.074194
1.492414
4.727476
-4.075811
-19.259906
-34.712430
-30.520341
-6.759765
23.729917
48.946140
57.358423
49.190858
22.031868
-9.150794
-15.500122
-11.823391
-12.721807
-11.400312
-30.961219
-64.088734
-67.793586
-48.310290
-17.507631
26.678043
59.268744
80.187612
95.161599
69.729422
14.379435
-30.902494
-66.200456
-73.003622
-45.524712
-30.051209
-25.586692
-7.922951
5.341271
9.645216
10.866132
6.275835
4.160620
6.298298
15.135974
33.503549
38.137294
19.642006
5.232629
9.507763
23.443108
37.070817
38.709651
21.426119
-10.828323
-46.896074
-67.238535
-67.025876
-55.621992
-29.878642
-1.352978
18.291637
52.243856
90.057222
92.109865
65.075309
22.585614
-29.829308
-66.318413
-83.628397
-90.661915
-73.962985
-39.883400
-9.761367
22.088443
59.812309
80.782202
71.306399
44.741298
13.591169
-18.234360
-41.963063
-51.628072
-48.053216
-36.983644
-34.852797
-48.470414
-56.472858
-40.110986
-10.558010
14.271035
35.615044
59.010468
70.181939
48.746703
7.926184
-15.597295
-17.324401
-13.052628
-4.474689
-4.794216
-18.777012
-20.665871
-11.810805
-10.515396
-7.807965
2.073391
12.376040
18.771308
18.627632
11.724263
-2.089388
-11.688941
-6.390812
9.182145
33.960071
52.407765
44.951409
28.292947
15.082587
2.681375
-2.970970
-7.933373
-15.505708
-22.507576
-30.198850
-16.960652
18.393359
32.460429
19.883154
11.849586
12.635963
16.907121
27.504623
38.259228
41.844198
38.896119
26.077450
-2.262720
-34.651611
-53.864208
-66.875705
-70.601659
-35.373509
19.186202
49.985422
63.968550
58.281836
35.524645
33.620383
31.604453
9.567883
2.632713
0.673513
-6.336027
-4.700701
-15.448704
-30.090874
-25.938916
-8.784482
20.666628
34.712232
24.964921
30.719570
37.656701
23.314434
9.169960
-6.145340
-17.637069
-7.008612
8.503199
13.837190
10.196855
2.008643
5.113113
16.958438
20.755554
19.461144
17.651093
13.337859
10.496738
9.235271
4.099219
-4.924774
-11.878630
-15.141984
-19.674137
-25.101481
-27.069826
-25.731379
-19.389953
-1.080932
26.394611
43.539536
42.583109
34.930525
24.122945
13.756830
7.179178
-2.612599
-5.933403
0.881099
-4.759797
-22.867953
-36.158502
-39.750195
-34.098157
-26.551361
-20.224790
-9.424028
11.488352
40.456531
52.091940
39.797003
35.962588
42.334839
37.429398
23.527473
2.698144
-20.620014
-34.793599
-43.990745
-47.122415
-36.364444
-21.199015
-11.594042
-11.510115
-19.148082
-18.990706
-6.329578
10.838388
30.330743
43.092689
44.601441
45.293059
42.231916
24.716007
-1.453100
-17.416612
-12.785355
-4.801011
-9.853843
-17.974598
-20.064656
-16.183236
-11.573087
-16.121277
-21.436582
-10.059822
17.562676
45.397061
53.504320
40.669529
24.676548
14.669099
6.457339
-10.101045
-33.703520
-46.744615
-46.086039
-39.504023
-28.351117
-18.313197
-2.528873
32.800009
70.116907
84.270411
64.594619
14.834071
-23.854743
-22.711015
-7.712816
1.294431
0.160844
-8.698081
-0.462237
19.372386
23.694942
15.569375
-2.818202
-22.857612
-24.045485
-11.637520
5.334607
16.226746
11.548724
7.496018
2.218299
-9.343591
-4.313551
6.546971
1.614999
-8.618859
-21.775176
-32.022755
-29.489774
-26.827566
-24.238657
-14.084784
-3.680274
12.028559
34.608489
40.986449
22.975930
1.934119
-2.619501
6.629601
11.444323
1.826242
-14.264197
-27.918411
-34.117448
-25.939762
-8.425784
2.488595
2.389958
-1.812462
-3.423172
-1.568151
1.581066
9.426881
18.016309
13.995807
-0.064112
-13.121869
-21.351313
-19.256067
-5.507819
11.341449
19.555583
11.566583
-4.459304
-16.573812
-21.768732
-20.392818
-24.601434
-39.527122
-47.150530
-40.547017
-21.457594
7.783056
28.388162
34.609411
35.162247
31.069892
28.205994
21.878998
3.826033
-13.225734
-21.346454
-14.315837
6.415305
9.603204
-9.593770
-21.701222
-20.724601
-13.191023
-0.171188
13.738231
23.672338
27.538900
27.343686
21.344802
12.261796
7.691869
-7.042948
-35.233457
-50.298516
-49.427231
-42.040238
-27.500870
-21.266364
-27.175810
-18.588633
14.216843
50.433300
74.067334
84.215719
73.652240
37.811803
-1.226526
-21.145000
-27.021936
-28.120249
-22.054198
-13.090831
-8.935900
-0.240329
15.996039
19.834275
5.918239
-10.072410
-19.348123
-18.563112
-6.034954
11.072555
20.370671
17.327397
10.406665
3.667641
-6.854061
-16.075958
-19.376970
-21.854909
-24.070071
-25.818902
-32.519151
