EVENT_NAME: 202302060117
EVENT_ID: 13194
EVENT_DATE_YYYYMMDD: 2023/02/06
EVENT_TIME_HHMMSS: 01:17:32.00000
EVENT_LATITUDE_DEGREE: 37.288
EVENT_LONGITUDE_DEGREE: 37.043
EVENT_DEPTH_KM: 8.6
HYPOCENTER_REFERENCE: AFAD
MAGNITUDE_W: 7.7
MAGNITUDE_W_REFERENCE: AFAD
MAGNITUDE_L: 
MAGNITUDE_L_REFERENCE: 
FOCAL_MECHANISM: 
NETWORK: TK
STATION_CODE: 0131
STATION_NAME: 
STATION_LATITUDE_DEGREE: 37.856602
STATION_LONGITUDE_DEGREE: 36.115347
STATION_ELEVATION_M: 769.0
LOCATION: Kahramanmaras_Pazarck_Turkiye
SENSOR_DEPTH_M: 
VS30_M/S: None
SITE_CLASSIFICATION_EC8: unknown
MORPHOLOGIC_CLASSIFICATION: 
EPICENTRAL_DISTANCE_KM: 103.35
EARTHQUAKE_BACKAZIMUTH_DEGREE: 
DATE_TIME_FIRST_SAMPLE_YYYYMMDD_HHMMSS: 2023/02/06 01:17:29.868359
DATE_TIME_FIRST_SAMPLE_PRECISION: millisecond
SAMPLING_INTERVAL_S: 0.01
NDATA: 12500
DURATION_S: 
STREAM: HNE
UNITS: cm/s^2
INSTRUMENT: sensor = ACEBOX/SARA | digitizer = 
INSTRUMENT_ANALOG/DIGITAL: 
INSTRUMENTAL_FREQUENCY_HZ: 
INSTRUMENTAL_DAMPING: 
FULL_SCALE_G: 
N_BIT_DIGITAL_CONVERTER: 
PGA_CM/S^2: 163.672
TIME_PGA_S: 
BASELINE_CORRECTION: BASELINE REMOVED
FILTER_TYPE: BUTTERWORTH
FILTER_ORDER: 1
LOW_CUT_FREQUENCY_HZ: 0.025
HIGH_CUT_FREQUENCY_HZ: 40.0
LATE/NORMAL_TRIGGERED: NT
DATABASE_VERSION: 
HEADER_FORMAT: DYNA 1.2
DATA_TYPE: Acceleration
PROCESSING: Automatic Paolucci et al., 2011
DATA_TIMESTAMP_YYYYMMDD_HHMMSS: 
DATA_LICENSE: U (unknown license)
DATA_CITATION: Turkish Accelerometric Archive v 1.0 - Disaster And Emergency Management Presidency, Earthquake Department
DATA_CREATOR: AFAD
ORIGINAL_DATA_MEDIATOR_CITATION: : AFAD - Disaster And Emergency Management Presidency
ORIGINAL_DATA_MEDIATOR: AFAD PROCESS SERVICE
ORIGINAL_DATA_CREATOR_CITATION: AFAD PROCESS SERVICE
ORIGINAL_DATA_CREATOR: network: TK
USER1: GuestUser
USER2: 
USER3: 
USER4: 
USER5: 
[...]
3.561852
13.251254
27.670487
36.467669
37.368061
37.034390
27.381866
0.502713
-20.519678
-19.161237
-18.554773
-32.708070
-39.791898
-23.699963
5.545182
25.534680
22.556282
8.262120
-2.223843
-11.473122
-21.880757
-23.864432
-7.379826
15.817395
22.357103
17.787912
16.389937
11.572318
3.791939
-2.800012
-11.010576
-11.580586
-3.555411
-3.077050
-16.143417
-36.231213
-45.756294
-33.270980
-15.628383
-3.055176
15.889129
39.502633
55.251108
51.795517
21.030208
-18.452724
-41.712132
-56.543322
-63.650396
-40.260585
-0.721404
22.949772
37.230083
41.976238
21.209275
-4.819662
-15.823365
-16.117104
-3.524920
8.582727
5.257720
5.250214
11.429273
8.771070
5.877558
4.826294
-2.384288
-8.429063
-10.452406
-11.057925
-9.470314
-12.723116
-25.202357
-39.950265
-45.852424
-33.660770
-6.575428
22.707605
42.978884
49.695727
46.984679
34.754680
14.110950
1.530531
3.741018
9.273065
5.449207
-13.906543
-32.125510
-30.483208
-14.597470
12.450490
40.062376
38.988952
9.268911
-23.801258
-45.406644
-47.806156
-32.658773
-11.909279
4.946136
14.108224
15.726783
11.614122
7.475684
9.215124
13.384594
14.492596
11.056338
0.846242
-13.051662
-18.267094
-9.990375
-1.756525
-4.491869
-11.217674
-14.213810
-14.129061
-11.981637
-10.083000
-10.755432
-7.378609
7.783913
24.304431
25.138972
11.979405
-7.504877
-29.513185
-41.204735
-34.974497
-16.892568
8.691389
36.020577
51.762346
43.666972
19.227235
-0.684894
-14.993322
-23.802842
-14.911760
1.223812
14.670103
27.111447
18.260849
-10.875614
-26.361754
-24.743033
-20.338405
-11.761137
2.012511
13.683093
9.296788
-13.380575
-32.096683
-30.120541
-9.998367
16.583117
30.129674
20.750084
-0.473661
-21.283908
-37.977950
-42.664478
-27.735092
-6.915229
1.923973
3.885672
6.624170
10.560114
19.903913
27.204849
20.264713
6.310216
-4.042034
-10.960633
-16.919578
-21.846407
-17.318143
3.419180
26.016411
28.768793
9.672600
-12.597932
-21.628786
-20.560197
-16.344621
-5.797959
6.295395
6.587868
-4.152245
-15.485653
-18.855319
-3.565429
28.987529
53.965650
49.143380
18.748052
-9.584653
-15.134364
-14.642664
-24.030875
-21.460824
0.775969
22.041562
35.194017
33.472854
17.473575
14.128548
21.357881
13.833507
2.577355
-2.003235
-14.493539
-27.431158
-20.789944
-0.719202
14.549777
18.185566
13.251161
6.971959
2.953424
-4.187269
-15.964227
-25.909753
-30.659084
-28.234867
-19.994519
-8.403282
14.662407
44.203670
52.343891
32.288092
6.113567
-10.292816
-17.149170
-23.088496
-30.398731
-26.657508
-7.566132
12.036575
21.413860
22.417987
19.702967
21.236592
32.339062
43.797386
44.625953
33.201415
5.275552
-36.643530
-66.405462
-60.441449
-26.417747
6.713668
16.217025
7.127719
-1.676511
-6.182566
-7.626202
-4.525866
-3.310641
-2.508193
5.453406
12.430627
14.103892
16.705149
15.516552
7.132963
-1.359757
-6.017433
-4.561759
2.946416
9.532252
9.041134
-0.132075
-10.516874
-9.502970
-1.602629
2.243751
8.359273
17.886417
19.058324
10.807211
-0.327104
-6.136105
-2.498972
0.804065
-2.047895
-10.002856
-23.760781
-32.580042
-26.919867
-11.039743
10.430362
29.494561
40.011884
43.473908
35.423437
16.335939
-2.868679
-18.479558
-29.050140
-28.908438
-16.960176
0.219701
14.382332
24.355577
27.993478
19.403883
4.958823
-10.209128
-30.837320
-44.667129
-35.293237
-12.792878
4.371471
10.250835
7.364090
0.709426
-5.463443
-4.623362
8.097481
23.681221
28.101841
17.379871
1.017395
-2.158909
3.794824
-6.730364
-18.798201
-1.889614
18.511181
12.138275
-5.979588
-19.629569
-25.780902
-23.591168
-17.956578
-8.328795
4.144827
6.647062
-1.243309
-6.805130
-8.276519
-8.041622
0.053088
17.765755
33.943694
37.833695
29.180845
9.676802
-17.135939
-37.088312
-43.348625
-41.898024
-31.069248
-18.506334
-16.930651
-7.183358
18.628214
32.302995
32.760430
40.467482
48.112643
36.922468
5.311980
-30.425365
-53.891716
-57.567159
-40.982690
-19.150836
-3.445171
9.581761
10.377427
-6.147705
-19.549609
-12.996319
15.450560
50.305389
65.304111
55.885226
34.511370
8.703524
-14.811044
-29.335014
-32.857231
-28.235223
-17.424097
-5.219570
-8.307782
-22.754341
-16.521286
7.822075
21.022434
30.732676
47.060873
44.695937
15.799883
-20.812017
-54.170793
-63.863373
-33.294868
7.787532
22.233669
12.645446
-1.697692
-10.237653
-10.158885
-4.743356
0.342683
6.350234
15.419704
17.515064
7.728249
-4.838875
-18.988311
-31.494171
-26.657194
-2.370799
29.586300
51.238452
41.117694
9.094210
-10.512270
-13.869085
-20.550323
-26.983505
-15.982925
2.031786
6.350663
1.475045
-7.029047
-15.895783
-6.041046
20.328854
35.635138
25.571375
-2.868721
-21.354159
-11.276678
10.335614
25.047997
22.373178
-0.071146
-20.868518
-28.733663
-31.562833
-24.755347
-11.078733
-10.010441
-17.710656
-13.212489
-1.665432
3.211607
9.217478
16.630467
21.144044
34.948354
48.329528
40.506351
23.117578
9.896368
-1.039379
-12.505105
-29.224943
-48.131814
-57.889167
-47.870090
-16.364349
17.166802
35.566713
41.362827
35.891065
21.986763
8.810360
-3.439686
-17.135980
-25.538427
-22.887265
-16.893689
-19.117253
-30.930608
-44.065219
-40.505511
-13.738838
12.618604
25.106315
39.598480
58.807174
59.881268
32.449992
-4.202607
-35.426908
-60.616800
-65.674116
-45.988429
-22.459118
-5.250573
7.055033
13.974971
21.011202
31.394877
38.977240
39.512254
34.945382
18.790626
-11.582457
-30.176566
-31.283455
-41.614117
-45.832698
-20.039897
9.898982
27.371389
34.202245
23.217637
5.881291
-7.973266
-27.399645
-43.651332
-41.571969
-23.245038
0.556946
13.943805
14.337477
21.838957
47.444033
73.648905
75.059162
47.622822
6.268318
-37.494097
-76.214312
-99.648340
-94.793218
-58.401922
-16.907918
3.864336
15.204396
35.072618
63.266378
88.492999
93.686177
69.736437
21.095634
-34.866087
-78.725190
-105.185491
-99.843062
-50.422239
9.128690
45.844741
63.047331
59.210172
39.435825
27.941587
30.292376
34.287921
22.846544
-11.520815
-34.918685
-25.420026
-26.123679
-45.111532
-32.673300
-10.071818
-18.925782
-18.304650
1.169431
-3.394618
-9.642474
18.749023
57.444787
68.677586
40.402396
-3.909838
-33.183710
-48.322612
-54.537778
-40.497110
-15.264857
-7.095638
-12.930972
-4.905624
20.466216
46.115307
55.801779
39.861948
10.489898
-9.500629
-16.474525
-25.380632
-37.476801
-26.015089
9.532014
28.691852
24.177884
20.317032
19.048617
12.286074
-2.957254
-20.134453
-24.428921
-21.136031
-21.849108
-21.233813
-20.913771
-23.384945
-16.155659
-0.941975
3.958436
-4.310493
-14.880415
-22.618923
-25.962284
-20.971778
-8.506155
1.903284
4.028410
3.645136
6.808981
13.328825
20.530373
19.581092
8.053538
-3.200064
-9.409062
-6.263988
7.202735
15.151424
17.183320
18.206591
1.801155
-23.536810
-32.747697
-29.136873
-18.646523
-1.056796
20.456138
40.025428
39.923571
24.055502
16.055512
4.258190
-18.219513
-25.766041
-23.037123
-21.661986
-7.507142
4.527735
-0.485190
2.048820
11.408069
12.311069
19.885077
29.545302
21.993219
13.192529
14.070722
1.957670
-26.952647
-38.618527
-20.873469
-3.183924
4.983516
15.464336
16.981965
8.245100
5.856914
-0.121960
-18.099887
-32.588480
-38.415913
-33.080734
-8.218652
21.406164
30.272387
21.411824
16.507431
15.808564
2.498951
-21.952013
-44.342080
-59.619496
-59.075650
-36.147397
-6.323788
12.545553
21.718018
26.625148
26.685598
25.051424
25.863237
18.992184
-7.632930
-36.419708
-38.881238
-24.423372
-21.349608
-23.721687
-9.149344
11.781342
13.733464
2.793873
1.099126
7.874621
8.292327
3.559740
8.030542
21.504964
29.192158
24.852689
9.747081
-12.519998
-31.998151
-42.960934
-42.888111
-25.891189
-0.553742
11.001520
4.145259
-1.358503
7.127128
16.978454
21.579140
33.813609
49.076837
47.297344
31.219849
15.700203
0.265149
-15.190237
-17.979495
-11.113379
-12.045060
-16.282275
-13.084086
-6.639387
3.611170
14.305348
12.635557
2.887237
-2.258232
-3.955264
-9.536890
-22.992871
-41.512828
-49.176969
-30.935235
0.809428
24.214185
39.101510
49.458886
50.901762
41.581247
21.886529
1.760987
-6.783725
-16.668430
-43.987329
-70.389539
-68.590481
-39.720151
-2.529125
25.614151
41.064667
54.959213
61.480583
43.372725
12.881796
-7.190313
-10.150109
-1.000744
3.309856
0.014860
3.086747
2.691931
-14.439694
-27.729860
-11.988480
21.161277
30.537209
5.267873
-16.786472
-17.467743
-15.890051
-16.760014
-10.270060
6.829135
31.291332
46.235360
39.140041
19.048420
-6.273398
-34.345325
-59.354944
-73.618469
-66.381365
-43.757251
-21.179741
2.502986
16.310409
6.876224
-1.625398
13.650496
46.365870
77.876220
80.737614
46.380212
3.347505
-30.087659
-64.522350
-86.609800
-72.040200
-41.532769
-7.960198
39.119084
65.701533
53.465716
39.957565
29.088574
4.126651
-19.456859
-31.267389
-32.488445
-20.819621
-2.024811
16.027847
27.770000
30.201106
27.036824
18.007896
5.167779
2.324479
8.605548
8.270698
3.164839
2.217747
0.867670
-5.494216
-16.616641
-29.824400
-32.422892
-16.879275
0.112412
4.070804
6.990407
17.278570
20.521058
10.426323
2.286288
4.646819
6.548346
-0.704497
-13.095213
-23.724194
-21.872158
-3.193042
10.617895
3.069493
-3.151990
9.062087
16.690320
5.820303
-6.826556
-13.659725
-12.054035
10.889233
41.948554
49.513150
36.114458
20.774100
-0.023361
-31.769562
-58.942711
-55.120303
-18.459191
8.379188
-0.943342
-18.420975
-23.544057
-20.961788
-7.812171
14.278747
39.352824
65.288658
71.575263
40.195018
-8.686967
-48.874303
-71.471342
-70.497978
-56.964245
-44.653599
-21.968354
8.273336
23.833138
25.355994
26.618653
34.388546
41.617402
34.817925
21.160024
16.769025
19.116504
13.107439
-7.139758
-29.642526
-44.493252
-46.672570
-29.176469
-5.692742
4.042405
1.682786
-7.174134
-10.403397
5.704304
24.008005
21.964195
5.629667
-9.307991
-13.400494
-6.782623
-0.302428
0.559309
5.534883
21.255250
36.519357
38.385231
23.069014
-9.877764
-48.408441
-64.524158
-40.415802
6.141432
37.980366
36.034278
8.419033
-10.178637
12.519930
50.795145
60.479680
46.715131
24.954200
-6.763209
-38.042442
-56.562052
-63.894834
-62.879856
-60.532796
-61.287733
-48.533923
-12.900730
24.599442
43.352387
41.371189
29.907298
21.608639
18.043714
19.680049
18.682219
-1.521703
-27.278418
-33.855276
-25.508431
-12.549941
0.134272
8.130615
12.858435
12.240446
3.158313
-12.336880
-29.379632
-32.335492
-9.333321
22.729439
38.474006
39.485535
38.583154
30.406425
15.548956
6.238817
-3.031473
-13.803086
-19.864074
-31.049326
-42.387282
-39.463279
-26.555474
-2.606257
23.591773
31.007076
30.713285
33.449782
27.102040
14.385989
2.444455
-5.760859
-5.278065
-0.952374
10.076755
25.837210
22.252681
2.082064
-17.589025
-45.308662
-73.631456
-81.598349
-66.965226
-24.923308
27.233362
44.763600
34.077410
32.737858
34.721344
23.252452
-0.837815
-27.982419
-28.851295
3.738075
33.114030
40.309608
33.007620
14.857433
-5.103549
-13.486021
-8.142109
1.798171
6.271543
6.955804
8.831580
5.025098
-7.120210
-13.179999
-8.868075
-14.851385
-41.174292
-60.719720
-43.887670
-2.199884
33.198743
52.054953
55.959291
46.572060
28.866750
1.388328
-30.855230
-40.506036
-16.031376
8.228122
5.962872
7.680955
38.965060
68.159447
61.657723
23.164955
-22.579208
-49.761905
-59.024283
-62.747142
-49.429492
-17.634521
5.089747
13.087448
19.935618
17.966865
9.480625
21.791131
50.903335
63.423792
52.036753
31.229011
10.960133
0.694478
3.200977
4.990366
-5.793283
-24.110255
-39.125077
-51.115791
-65.019851
-71.692310
-60.251507
-40.027217
-22.689124
2.615157
49.211584
96.469735
110.135202
90.988837
59.833415
25.550227
-4.701890
-26.326225
-39.353869
-38.039710
-29.983572
-33.582433
-41.635401
-35.987245
-18.031302
8.130140
41.917274
69.501066
77.407940
65.159262
33.981378
1.621468
1.387542
28.404956
43.281669
30.038903
-1.065231
-31.265352
-42.549838
-33.109039
-8.704994
16.043533
18.051928
2.091324
-14.131276
-33.337611
-45.345983
-25.983169
11.740601
32.655104
35.349393
38.271682
41.594099
41.137767
31.993834
3.554402
-35.255641
-65.118272
-78.383032
-74.543335
-62.246176
-49.213159
-32.742670
-5.382716
38.384912
79.016096
86.813826
63.514711
24.183597
-17.164895
-40.536654
-48.093481
-53.124383
-49.233602
-44.502244
-57.625909
-71.520666
-64.622024
-37.446772
9.382454
59.350644
84.939496
82.174867
59.729673
28.462107
-6.502985
-44.836293
-61.349925
-47.834475
-33.815600
-13.207108
24.200383
48.339338
53.228279
49.436445
37.221598
17.049488
-27.119337
-74.275613
-69.347953
-36.324115
-23.451035
-9.912759
9.196751
5.794339
0.399366
15.399785
26.598430
30.850123
41.053407
42.135945
38.044955
41.202775
28.776973
-1.766103
-25.664180
-40.342679
-44.165547
-31.874004
-16.097396
-3.455967
4.015984
-8.935064
-38.121173
-46.160442
-8.857897
47.562926
74.594801
66.563028
54.564820
41.795691
15.831149
-14.809998
-43.812937
-68.956019
-80.810725
-75.543164
-47.520570
11.232933
80.421839
108.269656
70.173573
2.990213
-50.028253
-77.522105
-78.913929
-49.989232
4.088779
48.190217
56.271434
44.481157
27.022065
10.642654
-6.101823
-37.690988
-58.638489
-51.416352
-50.777712
-48.544894
-13.241531
32.362707
68.223158
107.692580
144.643713
138.809538
83.051754
21.228082
-45.534278
-128.280465
-163.672117
-125.370476
-71.524094
-27.790457
13.489847
44.680942
61.487527
65.213555
61.234631
56.230238
50.946665
48.228979
40.503998
15.172769
-15.014114
-30.465893
-32.486570
-31.672818
-30.728652
-27.043602
-21.447195
-2.619385
42.905484
85.122482
86.155650
63.894034
50.243542
37.264793
7.984731
-24.269262
-36.204409
-27.937187
-15.458029
-9.794929
-7.354717
0.890708
8.746979
4.154700
-16.065631
-43.682477
-53.121608
-33.403794
-8.964323
2.524007
10.311827
31.067868
63.860934
80.292118
61.335267
19.964974
-19.854626
-35.432373
-23.884529
-10.832122
-12.082282
-16.857745
-23.225844
-40.918259
-51.900986
-33.368332
-3.388176
19.803186
42.670606
57.330958
52.273504
35.869623
14.691072
-10.653509
-34.248104
-49.516796
-50.040698
-30.640354
1.373987
29.889536
40.790546
21.752831
-17.422890
-37.185588
-19.950793
7.446081
19.507791
15.148276
0.107008
-14.431375
-7.431776
22.762726
41.774223
22.864832
-14.351371
-35.013993
-35.696942
-28.679021
-10.155894
18.060881
32.578372
20.242747
-0.647303
-3.957019
3.897113
-6.784465
-28.151415
-18.615776
16.783076
27.249961
1.948146
-27.890343
-48.049501
-55.616435
-43.743914
-22.667089
-3.759576
19.470318
37.385169
33.557776
24.513907
19.664443
6.571378
-4.010430
-1.740306
1.702985
0.693248
-5.621374
-12.004742
-8.502774
-1.792781
-1.380533
-3.044530
-1.987564
-2.309301
-6.587101
-1.776108
22.628280
49.540896
52.852852
32.212721
5.822757
-21.972297
-50.196430
-69.617598
-74.674225
-49.466757
-2.212420
18.112047
8.320764
-4.808514
-18.970438
-7.420656
38.616709
70.760467
75.169865
66.342260
33.358896
-16.242868
-59.786985
-93.561228
-100.359009
-67.989149
-27.486920
4.200140
35.810330
54.449031
56.801291
62.534598
72.817018
70.807767
42.344373
-5.322996
-45.381528
-62.094926
-56.430752
-34.415856
0.429212
44.050041
75.156436
65.038269
8.856536
-58.898818
-93.692350
-83.467400
-36.758773
20.406666
51.222189
56.914927
42.221496
2.761093
-20.144131
-7.518311
11.071070
26.612009
28.438575
15.804957
16.727620
20.782938
5.192704
-7.821412
-0.582183
7.642203
4.396205
-0.904111
-8.572534
-16.945820
-12.618083
1.887632
23.454605
53.700117
75.319557
65.988247
25.960685
-11.466110
-27.294693
-46.079727
-73.829843
-95.722267
-103.690683
-71.475351
-1.953151
54.197957
78.065507
82.516537
74.440967
57.875909
30.424733
-2.485633
-29.522795
-53.494808
-70.261765
-66.813802
-39.941641
-3.792267
6.292563
-13.195648
-19.450193
-3.685247
18.149549
53.984935
88.466392
91.214612
78.317557
67.648751
38.982241
-3.850530
-33.520596
-62.721047
-97.916856
-103.641302
-80.205526
-59.767497
-46.950464
-36.270608
-14.280785
26.802198
52.503782
53.424206
71.749549
102.308389
105.287477
85.357321
48.111886
-12.158483
-63.021418
-85.652908
-98.888537
-86.794164
-32.315730
10.318671
9.651935
16.682109
36.940131
24.258339
1.871070
3.500945
11.460267
21.822333
32.494084
31.368120
25.465143
17.390650
10.327409
2.375439
-27.765523
-67.318640
-89.856403
-103.171020
-98.400266
-53.532659
11.608447
65.855307
105.017882
117.533868
79.035141
16.644355
-27.880587
-71.224572
-96.685299
-56.230684
-1.215554
11.635929
10.170715
3.383989
-9.313042
-3.565033
4.877297
-4.105713
-10.104373
-3.257226
11.646303
36.037781
60.651448
69.805489
58.029611
30.564046
0.700907
-22.970782
-39.984744
-38.176027
-8.257667
19.661772
16.296001
3.613416
-2.491387
-18.206855
-27.564267
-12.622226
-1.332236
-1.114302
7.163988
16.350927
16.504861
6.271880
-20.683555
-49.738494
-54.595977
-40.528191
-21.057915
12.721549
49.940093
64.668577
63.854963
51.530132
22.444309
0.969415
-6.636545
-24.068990
-46.056464
-52.851804
-42.616061
-23.038312
-9.433018
-11.957126
-22.971714
-28.776394
-17.003682
10.985409
38.130737
59.548675
71.275895
50.325627
-5.175294
-64.864151
-103.709082
-111.143911
-77.872833
-1.031884
77.789223
98.952454
76.311318
58.632356
45.194508
21.833156
-1.735216
-3.965412
10.690742
7.338600
-8.176359
-19.642940
-56.234640
-104.494102
-108.496270
-68.600314
-23.366221
12.564537
52.977712
93.870239
94.419982
48.343742
3.596077
-29.021635
-73.561931
-94.008449
-56.170823
-17.650528
-11.898065
-2.321705
2.948600
-15.285003
-18.293648
2.780997
12.467106
13.829409
18.781486
11.303121
-3.858765
-10.465426
-7.167140
12.491917
39.893859
48.833688
37.919743
20.590387
1.723834
-7.869831
0.590610
7.221080
-7.135830
-25.119246
-27.699989
-16.300223
4.347520
23.080235
32.884848
36.673618
25.508056
-1.182819
-21.459393
-30.863647
-43.818636
-57.241314
-54.060070
-33.482881
-15.434709
-8.115414
2.064487
20.184344
39.700702
55.380488
59.244992
47.291452
18.826680
-27.500864
-79.297699
-117.546099
-124.384213
-86.055106
-22.884940
34.016589
80.577256
100.602325
79.043257
43.586295
13.519798
-13.387516
-31.293235
-42.408565
-42.988492
-21.740088
3.556459
13.541797
12.325434
0.548955
-20.000044
-34.343803
-33.145856
-23.303636
-18.506567
-20.204705
-19.686000
-15.726838
0.360924
36.617643
63.886168
60.730473
50.471684
41.289730
18.261335
-15.753293
-51.287538
-72.761480
-65.848369
-46.851514
-26.941904
3.929523
33.285187
46.862977
54.581274
52.806939
30.449495
1.515174
-19.739380
-33.423458
-33.382967
-21.874568
-17.425075
-20.857961
-22.046693
-22.328314
-15.669694
6.140093
32.480600
47.207117
43.135746
29.177685
21.392386
10.449867
-22.479694
-55.053936
-53.068010
-28.483651
-8.919356
1.606004
4.832101
3.975261
2.167065
-6.031778
-11.800194
-2.450916
8.743056
11.385502
10.592982
5.114862
-8.451829
-30.260503
-47.147301
-38.387729
-14.373729
0.685291
8.107222
16.361244
22.712374
18.948935
1.426328
